satname,norad_id,inclination_deg,eccentricity,mean_motion_rev_per_day,perigee_km,apogee_km,l1,l2
STARLINK-1234,45190,53.0341,0.000495,15.7605858,338.2942752378376,344.94683521751267,1 45190U 20012N   26169.32986638  .00059410  00000+0  37508-3 0  9997,2 45190  53.0341 188.0282 0004950 318.3816  41.6825 15.76058580351688
STARLINK-1269,45197,53.1574,0.0001141,15.35962182,457.2840313235656,458.84405240131946,1 45197U 20012V   26169.59542676  .00037754  00000+0  10685-2 0  9996,2 45197  53.1574 289.4789 0001141 341.8692  18.2270 15.35962182350381
STARLINK-1154,45198,53.04,0.0003495,15.64636601,371.92412076108576,376.64406310434697,1 45198U 20012W   26169.90375962  .00029815  00000+0  30674-3 0  9994,2 45198  53.0400 240.4838 0003495  14.6033 345.5081 15.64636601351045
STARLINK-1199,45201,53.156,0.000293,15.3587129,456.3306616310647,460.33683348913564,1 45201U 20012Z   26168.52535407  .00032151  00000+0  91474-3 0  9990,2 45201  53.1560 278.7613 0002930 314.9212  45.1553 15.35871290350466
STARLINK-1209,45206,53.0361,0.0007065,15.66752875,363.435928523455,372.9685058373316,1 45206U 20012AE  26169.78794012  .00033851  00000+0  31897-3 0  9994,2 45206  53.0361 201.0940 0007065 289.3468  70.6783 15.66752875350697
STARLINK-1231,45212,53.0407,0.0002398,15.2856186,478.4660200697999,481.75523563211664,1 45212U 20012AL  26169.60128823  .00020589  00000+0  74153-3 0  9999,2 45212  53.0407 269.4235 0002398  65.5283 294.5966 15.28561860350626
STARLINK-1271,45217,53.1566,0.0002957,15.36126051,455.5565363347723,459.5991781013299,1 45217U 20012AR  26169.56264800  .00044679  00000+0  12546-2 0  9998,2 45217  53.1566 274.0038 0002957 327.0472  33.0347 15.36126051350625
STARLINK-1191,45222,53.1525,0.0002716,15.40233207,443.56718210914187,447.273738521586,1 45222U 20012AW  26169.90389928  .00035779  00000+0  88226-3 0  9991,2 45222  53.1525 245.0867 0002716 298.1671  61.9059 15.40233207351062
STARLINK-1212,45223,53.0377,0.0001888,15.68361851,362.3145624853605,364.86023761882007,1 45223U 20012AX  26169.79600939  .00134543  00000+0  11599-2 0  9994,2 45223  53.0377 216.5519 0001888  44.2432 315.8734 15.68361851351437
STARLINK-1215,45225,53.1547,0.0004307,15.36295805,454.13037794228967,460.01822895908117,1 45225U 20012AZ  26169.49595230  .00031864  00000+0  89436-3 0  9998,2 45225  53.1547 248.5735 0004307 328.3622  31.7122 15.36295805350939
STARLINK-1221,45227,53.0639,0.0003225,15.45145052,428.7559677218178,433.1478300616036,1 45227U 20012BB  26169.65664667  .00011278  00000+0  24277-3 0  9998,2 45227  53.0639 149.9374 0003225   1.7929 358.3088 15.45145052352305
STARLINK-1222,45228,53.0508,0.000367,15.55899953,397.05043145010404,402.0252447812809,1 45228U 20012BC  26169.42426270  .00026307  00000+0  37845-3 0  9994,2 45228  53.0508 217.5697 0003670  23.1340 336.9835 15.55899953351274
STARLINK-1226,45229,53.1545,0.0004583,15.45382797,427.13324572241254,433.37381648322116,1 45229U 20012BD  26169.91559753  .00038508  00000+0  79811-3 0  9997,2 45229  53.1545 241.9416 0004583 330.6878  29.3871 15.45382797351009
STARLINK-1227,45230,53.1526,0.0004504,15.45481829,426.89631272742645,433.0290489199124,1 45230U 20012BE  26169.92471985  .00040027  00000+0  82627-3 0  9998,2 45230  53.1526 241.9942 0004504 322.8518  37.2177 15.45481829351127
STARLINK-1246,45235,53.1566,0.0002279,15.35988761,456.4272262321001,459.54313072104924,1 45235U 20012BK  26169.60182407  .00036599  00000+0  10353-2 0  9991,2 45235  53.1566 289.0722 0002279 284.9202  75.1549 15.35988761350444
STARLINK-1270,45237,53.0391,0.0001963,15.64591659,373.08787195830155,375.7389232444002,1 45237U 20012BM  26169.83987611  .00091709  00000+0  92671-3 0  9996,2 45237  53.0391 218.0575 0001963 256.2470 103.8326 15.64591659351415
STARLINK-1279,45360,53.0351,0.0001983,15.80584412,327.45691151392384,330.11687753049137,1 45360U 20019A   26170.00002315  .00022562  00000+0  11909-3 0  9996,2 45360  53.0351 319.2959 0001983  58.2700 354.4853 15.80584412  6004
STARLINK-1301,45361,53.0356,0.0001856,15.82451895,322.2653809456451,324.753032017491,1 45361U 20019B   26169.68193244  .00097846  00000+0  45877-3 0  9999,2 45361  53.0356 323.1308 0001856 327.6878  32.4030 15.82451895346490
STARLINK-1262,45366,53.154,0.0004192,15.35056984,457.8843798277421,463.6181037296501,1 45366U 20019G   26169.97044634  .00039033  00000+0  11362-2 0  9999,2 45366  53.1540  53.8731 0004192 123.2766 236.8639 15.35056984345278
STARLINK-1273,45367,53.0439,0.0003852,15.58422396,389.61441485960677,394.83029970845746,1 45367U 20019H   26169.79016370  .00070101  00000+0  90255-3 0  9996,2 45367  53.0439  28.4614 0003852 102.0923 258.0520 15.58422396345594
STARLINK-1277,45369,53.042,0.0003815,15.65430283,369.4263774017372,374.57673311940107,1 45369U 20019K   26169.75664667  .00038779  00000+0  38454-3 0  9990,2 45369  53.0420  22.0757 0003815  85.3394 274.8056 15.65430283345680
STARLINK-1281,45370,53.156,0.0004495,15.35854682,455.31001593968904,461.4560474481823,1 45370U 20019L   26169.97571227  .00034563  00000+0  98262-3 0  9995,2 45370  53.1560  53.4104 0004495 107.3005 252.8491 15.35854682345286
STARLINK-1300,45374,53.1577,0.0003944,15.36455359,453.9054705259705,459.2967119323321,1 45374U 20019Q   26169.91888767  .00036145  00000+0  10074-2 0  9995,2 45374  53.1577  53.5424 0003944 114.8515 245.2899 15.36455359345277
STARLINK-1302,45375,53.0454,0.0004142,15.68413134,360.648080059289,366.2328028117754,1 45375U 20019R   26169.85940188  .00041880  00000+0  36771-3 0  9990,2 45375  53.0454  17.4174 0004142 102.3192 257.8288 15.68413134345750
STARLINK-1304,45376,53.0415,0.0003458,15.64524845,372.27054571746703,376.9407425301424,1 45376U 20019S   26169.76291487  .00047002  00000+0  48146-3 0  9993,2 45376  53.0415  19.5419 0003458 130.2022 229.9295 15.64524845345716
STARLINK-1305,45377,53.0394,0.0002999,15.72921982,348.53299863055963,352.56886565225795,1 45377U 20019T   26169.78400943  .00048837  00000+0  35442-3 0  9997,2 45377  53.0394 357.2822 0002999 278.6712  81.3965 15.72921982346037
STARLINK-1319,45379,53.0373,0.0001285,15.79389899,331.30588301884563,333.03043144425465,1 45379U 20019V   26169.96279853  .00084782  00000+0  45883-3 0  9992,2 45379  53.0373 347.5920 0001285 119.5901 240.5247 15.79389899346187
STARLINK-1266,45383,53.0459,7.14e-05,15.6687997,367.3557372254654,368.31906236975647,1 45383U 20019Z   26169.95213643  .00039791  00000+0  37224-3 0  9991,2 45383  53.0459   3.3570 0000714 238.9139 121.1806 15.66879970345959
STARLINK-1267,45384,53.0444,0.0005307,15.66332744,365.8276027572583,372.98944757767185,1 45384U 20019AA  26169.79603056  .00043511  00000+0  41518-3 0  9991,2 45384  53.0444 355.3877 0005307 148.4725 211.6609 15.66332744346054
STARLINK-1272,45386,53.0398,0.0005045,15.71083161,352.4028802700086,359.19742285593475,1 45386U 20019AC  26169.72129242  .00054926  00000+0  42968-3 0  9998,2 45386  53.0398 334.1595 0005045 127.1520 232.9958 15.71083161346349
STARLINK-1274,45387,53.0195,0.0005543,15.63972349,372.45196021296033,379.9398136514128,1 45387U 20019AD  26170.00002315  .00097353  00000+0  10065-2 0  9996,2 45387  53.0195 332.5896 0005543 198.1814 203.5659 15.63972349  5854
STARLINK-1280,45388,53.0347,0.0001505,15.84774092,315.9533019898154,317.9685264619975,1 45388U 20019AE  26170.00002315  .00141820  00000+0  59146-3 0  9990,2 45388  53.0347 339.2757 0001505 335.2352  59.0378 15.84774092  6007
STARLINK-1283,45389,53.0411,0.0001611,15.72931842,349.4388256104594,351.6067998021126,1 45389U 20019AF  26169.72593264  .00065990  00000+0  47623-3 0  9996,2 45389  53.0411 333.0765 0001611 228.5965 131.4914 15.72931842346365
STARLINK-1284,45390,53.0414,0.0003335,15.71203855,353.2096435498197,357.70094961163977,1 45390U 20019AG  26169.75535516  .00052666  00000+0  41037-3 0  9996,2 45390  53.0414 356.9502 0003335  61.6167 298.5186 15.71203855346022
STARLINK-1297,45395,53.0417,0.0004885,15.69490626,357.06283481498394,363.6463410964161,1 45395U 20019AM  26169.97286791  .00049283  00000+0  41270-3 0  9993,2 45395  53.0417 355.0476 0004885  84.3299 275.8274 15.69490626345250
STARLINK-1307,45397,53.0528,0.0001224,15.57428019,394.27480411847137,395.93289347825703,1 45397U 20019AP  26169.72619829  .00031136  00000+0  42191-3 0  9991,2 45397  53.0528   3.1218 0001224 149.2496 210.8587 15.57428019345760
STARLINK-1255,45399,53.0348,0.000317,15.66785507,365.96998474386965,370.2471044191343,1 45399U 20019AR  26169.63766408  .00041516  00000+0  38949-3 0  9998,2 45399  53.0348 330.6667 0003170 147.9630 212.1579 15.66785507346197
STARLINK-1260,45404,53.1549,0.0004516,15.38972205,446.0641377868751,452.23054100221634,1 45404U 20019AW  26169.86660111  .00039394  00000+0  10107-2 0  9990,2 45404  53.1549  16.3918 0004516 129.4798 230.6606 15.38972205345502
STARLINK-1263,45405,53.1573,0.0003177,15.35940138,455.9575691813425,460.301332884329,1 45405U 20019AX  26169.85815339  .00036219  00000+0  10263-2 0  9990,2 45405  53.1573  17.9232 0003177 151.0942 209.0238 15.35940138345485
STARLINK-1265,45406,53.1558,0.0003278,15.39293007,445.9610567827531,450.4364024871011,1 45406U 20019AY  26169.85668951  .00041694  00000+0  10578-2 0  9999,2 45406  53.1558  16.4033 0003278 120.2988 239.8342 15.39293007345502
STARLINK-1278,45408,53.0396,0.0004629,15.70418626,354.5816778028802,360.81771541660237,1 45408U 20019BA  26169.80175805  .00053094  00000+0  42732-3 0  9992,2 45408  53.0396 354.7481 0004629 112.5667 247.5840 15.70418626345787
STARLINK-1296,45412,53.156,0.0003847,15.39486418,445.00110215975656,450.2528449610136,1 45412U 20019BE  26169.95988349  .00041544  00000+0  10473-2 0  9991,2 45412  53.1560  15.5919 0003847 111.2636 248.8780 15.39486418345525
STARLINK-1309,45414,53.0616,0.0004901,15.69344379,357.47048099509084,364.07596079361156,1 45414U 20019BG  26169.76535781  .00043370  00000+0  36623-3 0  9995,2 45414  53.0616 348.9785 0004901  79.5722 280.5847 15.69344379345840
